STARLINK-1733
1 46564U 20070AJ  26061.16668981  .00080710  00000+0  60756-3 0  9996
2 46564  53.0434 144.7494 0001280 268.1022 257.1764 15.71855025  5984
